{
  "links" : {
    "next" : "https://api.nasa.gov/neo/rest/v1/feed?start_date=2009-04-09&end_date=2009-04-09&detailed=true&api_key=t0TVs3DtDT2H8Oy2Zy8m2eVrNsAVKAexjcZXUckd",
    "prev" : "https://api.nasa.gov/neo/rest/v1/feed?start_date=2009-04-07&end_date=2009-04-07&detailed=true&api_key=t0TVs3DtDT2H8Oy2Zy8m2eVrNsAVKAexjcZXUckd",
    "self" : "https://api.nasa.gov/neo/rest/v1/feed?start_date=2009-04-08&end_date=2009-04-08&detailed=true&api_key=t0TVs3DtDT2H8Oy2Zy8m2eVrNsAVKAexjcZXUckd"
  },
  "element_count" : 5,
  "near_earth_objects" : {
    "2009-04-08" : [ {
      "links" : {
        "self" : "https://api.nasa.gov/neo/rest/v1/neo/3398095?api_key=t0TVs3DtDT2H8Oy2Zy8m2eVrNsAVKAexjcZXUckd"
      },
      "neo_reference_id" : "3398095",
      "name" : "(2007 YZ)",
      "nasa_jpl_url" : "http://ssd.jpl.nasa.gov/sbdb.cgi?sstr=3398095",
      "absolute_magnitude_h" : 19.6,
      "estimated_diameter" : {
        "kilometers" : {
          "estimated_diameter_min" : 0.3195618867,
          "estimated_diameter_max" : 0.7145621017
        },
        "meters" : {
          "estimated_diameter_min" : 319.5618867213,
          "estimated_diameter_max" : 714.5621017269
        },
        "miles" : {
          "estimated_diameter_min" : 0.1985664891,
          "estimated_diameter_max" : 0.4440081677
        },
        "feet" : {
          "estimated_diameter_min" : 1048.4314204307,
          "estimated_diameter_max" : 2344.3639258298
        }
      },
      "is_potentially_hazardous_asteroid" : false,
      "close_approach_data" : [ {
        "close_approach_date" : "2009-04-08",
        "epoch_date_close_approach" : 1239174000000,
        "relative_velocity" : {
          "kilometers_per_second" : "12.974175602",
          "kilometers_per_hour" : "46707.0321671017",
          "miles_per_hour" : "29021.9334040527"
        },
        "miss_distance" : {
          "astronomical" : "0.3925628594",
          "lunar" : "152.7069549561",
          "kilometers" : "58726568",
          "miles" : "36491000"
        },
        "orbiting_body" : "Earth"
      } ],
      "orbital_data" : {
        "orbit_id" : "45",
        "orbit_determination_date" : "2017-04-06 09:04:53",
        "orbit_uncertainty" : "2",
        "minimum_orbit_intersection" : ".108834",
        "jupiter_tisserand_invariant" : "5.793",
        "epoch_osculation" : "2458000.5",
        "eccentricity" : ".361093594675302",
        "semi_major_axis" : "1.042324647772932",
        "inclination" : "16.4205770675092",
        "ascending_node_longitude" : "90.68066742586417",
        "orbital_period" : "388.6896158760526",
        "perihelion_distance" : ".6659478938899358",
        "perihelion_argument" : "129.6254241801975",
        "aphelion_distance" : "1.418701401655928",
        "perihelion_time" : "2458051.248852273584",
        "mean_anomaly" : "312.9969773509043",
        "mean_motion" : ".9261888800106218",
        "equinox" : "J2000"
      }
    }, {
      "links" : {
        "self" : "https://api.nasa.gov/neo/rest/v1/neo/3748335?api_key=t0TVs3DtDT2H8Oy2Zy8m2eVrNsAVKAexjcZXUckd"
      },
      "neo_reference_id" : "3748335",
      "name" : "(2016 FU6)",
      "nasa_jpl_url" : "http://ssd.jpl.nasa.gov/sbdb.cgi?sstr=3748335",
      "absolute_magnitude_h" : 28.9,
      "estimated_diameter" : {
        "kilometers" : {
          "estimated_diameter_min" : 0.004411182,
          "estimated_diameter_max" : 0.0098637028
        },
        "meters" : {
          "estimated_diameter_min" : 4.411182,
          "estimated_diameter_max" : 9.8637028131
        },
        "miles" : {
          "estimated_diameter_min" : 0.0027409806,
          "estimated_diameter_max" : 0.0061290189
        },
        "feet" : {
          "estimated_diameter_min" : 14.4723823528,
          "estimated_diameter_max" : 32.3612307372
        }
      },
      "is_potentially_hazardous_asteroid" : false,
      "close_approach_data" : [ {
        "close_approach_date" : "2009-04-08",
        "epoch_date_close_approach" : 1239174000000,
        "relative_velocity" : {
          "kilometers_per_second" : "16.8150379542",
          "kilometers_per_hour" : "60534.1366351884",
          "miles_per_hour" : "37613.5583997925"
        },
        "miss_distance" : {
          "astronomical" : "0.2287827058",
          "lunar" : "88.9964675903",
          "kilometers" : "34225404",
          "miles" : "21266680"
        },
        "orbiting_body" : "Earth"
      } ],
      "orbital_data" : {
        "orbit_id" : "3",
        "orbit_determination_date" : "2017-04-06 08:27:16",
        "orbit_uncertainty" : "7",
        "minimum_orbit_intersection" : ".000551947",
        "jupiter_tisserand_invariant" : "4.963",
        "epoch_osculation" : "2458000.5",
        "eccentricity" : ".3794986232978544",
        "semi_major_axis" : "1.286775307506054",
        "inclination" : "1.745927386188547",
        "ascending_node_longitude" : "183.9385732718043",
        "orbital_period" : "533.1537945864953",
        "perihelion_distance" : ".7984458498138334",
        "perihelion_argument" : "287.2364740696484",
        "aphelion_distance" : "1.775104765198275",
        "perihelion_time" : "2457952.838732874332",
        "mean_anomaly" : "32.18218896584619",
        "mean_motion" : ".6752273052454023",
        "equinox" : "J2000"
      }
    } ]
  }
}